QIANFAN-9               
1 60387U 24140J   25352.90585728  .00000068  00000+0  85783-4 0  9994
2 60387  88.9770 298.6986 0015861 173.2555 186.8813 13.50982649 68165
QIANFAN-10              
1 60388U 24140K   25352.91004269  .00000059  00000+0  72653-4 0  9994
2 60388  88.9780 298.0460 0015103 150.0619 210.1399 13.50982969 68290
QIANFAN-11              
1 60389U 24140L   25352.87307884  .00000071  00000+0  91087-4 0  9995
2 60389  88.9706 298.6325 0013939 172.1169 188.0204 13.50979308 67947
QIANFAN-12              
1 60390U 24140M   25352.89356706  .00000062  00000+0  77897-4 0  9999
2 60390  88.9749 298.6764 0012484 179.7869 180.3290 13.50980118 68073
QIANFAN-13              
1 60391U 24140N   25352.93882520  .00000066  00000+0  83313-4 0  9997
2 60391  88.9761 298.7724 0012225 182.3312 177.7784 13.50980694 68102
QIANFAN-14              
1 60392U 24140P   25352.88936156  .00000074  00000+0  96575-4 0  9990
2 60392  88.9740 298.6738 0015884 184.2691 175.8327 13.50980130 68106
QIANFAN-15              
1 60393U 24140Q   25352.89765284  .00000067  00000+0  84564-4 0  9991
2 60393  88.9764 298.6309 0012171 167.8223 192.3224 13.50978931 68095
QIANFAN-16              
1 60394U 24140R   25352.88540028  .00000078  00000+0  10284-3 0  9997
2 60394  88.9766 298.7525 0013723 187.4611 172.6338 13.50984213 68000
